[{"OBJECT_NAME":"UNKNOWN","OBJECT_ID":"","EPOCH":"2026-04-05T07:14:26.152512","MEAN_MOTION":14.34643132,"ECCENTRICITY":0.00163765,"INCLINATION":87.8707,"RA_OF_ASC_NODE":199.8396,"ARG_OF_PERICENTER":96.4525,"MEAN_ANOMALY":263.8538,"EPHEMERIS_TYPE":0,"CLASSIFICATION_TYPE":"U","NORAD_CAT_ID":270429,"ELEMENT_SET_NO":999,"REV_AT_EPOCH":8495,"BSTAR":0.0010003351,"MEAN_MOTION_DOT":2.849e-5,"MEAN_MOTION_DDOT":0},{"OBJECT_NAME":"UNKNOWN","OBJECT_ID":"","EPOCH":"2026-04-05T11:47:26.701728","MEAN_MOTION":14.13499256,"ECCENTRICITY":0.02172928,"INCLINATION":88.9149,"RA_OF_ASC_NODE":278.2601,"ARG_OF_PERICENTER":14.4937,"MEAN_ANOMALY":346.2348,"EPHEMERIS_TYPE":0,"CLASSIFICATION_TYPE":"U","NORAD_CAT_ID":270438,"ELEMENT_SET_NO":999,"REV_AT_EPOCH":8326,"BSTAR":0.00058006898,"MEAN_MOTION_DOT":1.382e-5,"MEAN_MOTION_DDOT":0}]
